     2.100          NAVIGATION                              RINEX VERSION / TYPE
fic2rin                                 02/09/2014 00:23:13 PGM / RUN BY / DATE
                                                            END OF HEADER
31 14  2  8  1 59 44.0  .333058647811D-03  .341060513165D-12  .000000000000D+00
     .200000000000D+01  .289062500000D+02  .429660754238D-08 -.244238662590D+01
     .168569386005D-05  .822827895172D-02  .469200313091D-05  .515377156258D+04
     .525584000000D+06 -.111758708954D-06 -.281040991349D+01  .800937414169D-07
     .979391175825D+00  .300906250000D+03 -.664586252742D+00 -.797211778499D-08
     .282154610015D-10  .100000000000D+01  .177800000000D+04  .000000000000D+00
     .240000000000D+01  .000000000000D+00 -.130385160446D-07  .200000000000D+01
     .518706000000D+06  .400000000000D+01
20 14  2  8  1 59 44.0  .159791205078D-03  .329691829393D-11  .000000000000D+00
     .100000000000D+01  .300000000000D+01  .522950354410D-08  .249569059891D+01
     .141561031342D-06  .596360105556D-02  .808387994766D-05  .515357823181D+04
     .525584000000D+06  .100582838058D-06  .129025606846D+01 -.447034835815D-07
     .926861266418D+00  .203750000000D+03  .131045844926D+01 -.823784313923D-08
    -.200365488884D-09  .100000000000D+01  .177800000000D+04  .000000000000D+00
     .240000000000D+01  .000000000000D+00 -.791624188423D-08  .100000000000D+01
     .520266000000D+06  .400000000000D+01
29 14  2  8  1 59 44.0  .509268138558D-03  .295585778076D-11  .000000000000D+00
     .330000000000D+02 -.343125000000D+02  .423410493889D-08 -.298473579027D+01
    -.186264514923D-05  .162751751486D-02  .853650271893D-05  .515375975037D+04
     .525584000000D+06 -.223517417908D-07 -.693238152860D+00 -.745058059692D-08
     .968479038731D+00  .218281250000D+03 -.995651968170D+00 -.784532678935D-08
     .118576367753D-09  .100000000000D+01  .177800000000D+04  .000000000000D+00
     .240000000000D+01  .000000000000D+00 -.931322574615D-08  .330000000000D+02
     .521406000000D+06  .400000000000D+01
 2 14  2  8  1 59 44.0  .477369409055D-03  .216004991671D-11  .000000000000D+00
     .200000000000D+01 -.665625000000D+01  .516664378288D-08 -.112950310173D+01
    -.327825546265D-06  .131212504348D-01  .663846731186D-05  .515380094337D+04
     .525584000000D+06  .372529029846D-06  .279561171153D+00  .111758708954D-07
     .939547923142D+00  .240031250000D+03 -.249589274640D+01 -.829855995405D-08
     .121790787361D-09  .100000000000D+01  .177800000000D+04  .000000000000D+00
     .240000000000D+01  .000000000000D+00 -.200234353542D-07  .200000000000D+01
     .524226000000D+06  .400000000000D+01
 2 14  2  8  3 59 44.0  .477385241538D-03  .216004991671D-11  .000000000000D+00
     .150000000000D+02 -.596875000000D+01  .532272171272D-08 -.794187752651D-01
    -.251457095146D-06  .131208846578D-01  .688433647156D-05  .515379999733D+04
     .532784000000D+06  .987201929092D-07  .279500383981D+00  .180676579475D-06
     .939547435991D+00  .236781250000D+03 -.249586838296D+01 -.857428572485D-08
     .842892252703D-10  .100000000000D+01  .177800000000D+04  .000000000000D+00
     .240000000000D+01  .000000000000D+00 -.200234353542D-07  .150000000000D+02
     .525606000000D+06  .400000000000D+01
20 14  2  8  3 59 44.0  .159814953804D-03  .329691829393D-11  .000000000000D+00
     .120000000000D+02  .578125000000D+01  .524021827612D-08 -.273729289924D+01
     .339001417160D-06  .596361979842D-02  .802055001259D-05  .515357825661D+04
     .532784000000D+06  .726431608200D-07  .129019692853D+01 -.130385160446D-07
     .926859785945D+00  .206312500000D+03  .131050065737D+01 -.822069956799D-08
    -.208937274505D-09  .100000000000D+01  .177800000000D+04  .000000000000D+00
     .240000000000D+01  .000000000000D+00 -.791624188423D-08  .120000000000D+02
     .525606000000D+06  .400000000000D+01
29 14  2  8  3 59 44.0  .509289558977D-03  .295585778076D-11  .000000000000D+00
     .340000000000D+02 -.384062500000D+02  .425482008748D-08 -.193453440549D+01
    -.210106372833D-05  .162706710398D-02  .842288136482D-05  .515376055336D+04
     .532784000000D+06 -.465661287308D-07 -.693294675626D+00  .372529029846D-08
     .968479764338D+00  .219125000000D+03 -.995727560072D+00 -.787068498848D-08
     .114647632677D-09  .100000000000D+01  .177800000000D+04  .000000000000D+00
     .240000000000D+01  .000000000000D+00 -.931322574615D-08  .340000000000D+02
     .525606000000D+06  .400000000000D+01
 1 14  2  8  4  0  0.0 -.206474214792D-05  .227373675443D-11  .000000000000D+00
     .490000000000D+02 -.143437500000D+02  .464697927963D-08 -.760606194575D+00
    -.836327672005D-06  .269886734895D-02  .749714672565D-05  .515367958450D+04
     .532800000000D+06  .819563865662D-07  .306724903226D+00  .167638063431D-07
     .961014221277D+00  .236531250000D+03  .380228506752D+00 -.805854995667D-08
     .642883921553D-11  .100000000000D+01  .177800000000D+04  .000000000000D+00
     .240000000000D+01  .000000000000D+00  .838190317154D-08  .490000000000D+02
     .525606000000D+06  .400000000000D+01
 3 14  2  8  4  0  0.0  .322916079313D-03  .500222085975D-11  .000000000000D+00
     .400000000000D+02 -.420000000000D+02  .516735809835D-08  .135816404544D+00
    -.198744237423D-05  .167473421898D-01  .842660665512D-05  .515376820755D+04
     .532800000000D+06 -.275671482086D-06 -.893509876559D+00  .838190317154D-07
     .937168816043D+00  .206687500000D+03  .136291276676D+01 -.862214486123D-08
     .921466954226D-10  .100000000000D+01  .177800000000D+04  .000000000000D+00
     .240000000000D+01  .000000000000D+00 -.465661287308D-08  .400000000000D+02
     .525606000000D+06  .400000000000D+01
 4 14  2  8  4  0  0.0  .539422035217D-05  .227373675443D-12  .000000000000D+00
     .750000000000D+02 -.893750000000D+01  .513271379813D-08 -.296116762849D+01
    -.478699803352D-06  .106012944598D-01  .701285898685D-05  .515368410683D+04
     .532800000000D+06  .106170773506D-06  .295618714437D+00 -.912696123123D-07
     .938562843847D+00  .231406250000D+03  .107685852588D+01 -.812248119109D-08
     .126433837905D-09  .100000000000D+01  .177800000000D+04  .000000000000D+00
     .240000000000D+01  .000000000000D+00 -.605359673500D-08  .750000000000D+02
     .525606000000D+06  .400000000000D+01
 5 14  2  8  4  0  0.0 -.389419030398D-03  .147792889038D-11  .000000000000D+00
     .740000000000D+02  .750000000000D+00  .488198906873D-08  .216932340331D+01
     .372529029846D-07  .352573150303D-02  .841915607452D-05  .515378876305D+04
     .532800000000D+06 -.242143869400D-07  .134636303640D+01 -.353902578354D-07
     .947325045811D+00  .211812500000D+03  .376031208992D+00 -.813676750046D-08
    -.293226499775D-09  .100000000000D+01  .177800000000D+04  .000000000000D+00
     .240000000000D+01  .000000000000D+00 -.102445483208D-07  .740000000000D+02
     .525606000000D+06  .400000000000D+01
 6 14  2  8  4  0  0.0  .267267692834D-03  .146656020661D-10  .000000000000D+00
     .650000000000D+02 -.385000000000D+02  .492984820511D-08  .199911047829D+01
    -.179931521416D-05  .854650931433D-02  .830739736557D-05  .515368707275D+04
     .532800000000D+06  .204890966415D-07 -.812119005799D+00  .167638063431D-06
     .943709635420D+00  .209406250000D+03 -.177893540449D+00 -.820748473183D-08
     .482162941165D-10  .100000000000D+01  .177800000000D+04  .000000000000D+00
     .240000000000D+01  .000000000000D+00 -.512227416039D-08  .650000000000D+02
     .525606000000D+06  .400000000000D+01
 7 14  2  8  4  0  0.0  .311503652483D-03  .420641299570D-11  .000000000000D+00
     .105000000000D+03  .348125000000D+02  .437696803257D-08 -.135386271519D+01
     .170804560184D-05  .701803981792D-02  .414811074734D-05  .515365157127D+04
     .532800000000D+06  .502914190292D-07 -.281612784584D+01 -.763684511185D-07
     .974436235718D+00  .304406250000D+03 -.283344348843D+01 -.815962559544D-08
     .149291932894D-09  .100000000000D+01  .177800000000D+04  .000000000000D+00
     .240000000000D+01  .000000000000D+00 -.107102096081D-07  .105000000000D+03
     .525606000000D+06  .400000000000D+01
 8 14  2  8  4  0  0.0  .117872841656D-04  .227373675443D-12  .000000000000D+00
     .102000000000D+03  .255000000000D+02  .390659129664D-08 -.193486145399D+01
     .105239450932D-05  .134593030671D-01  .423565506935D-05  .515364247704D+04
     .532800000000D+06  .856816768646D-07 -.271919273171D+01 -.158324837685D-06
     .997527834375D+00  .317593750000D+03 -.279197396092D+01 -.786747056887D-08
     .217866217860D-09  .100000000000D+01  .177800000000D+04  .000000000000D+00
     .340000000000D+01  .000000000000D+00 -.419095158577D-08  .102000000000D+03
     .525606000000D+06  .400000000000D+01
 9 14  2  8  4  0  0.0  .303917564452D-03  .284217094304D-11  .000000000000D+00
     .141000000000D+03  .382500000000D+02  .426982071231D-08 -.221552485785D+00
     .177323818207D-05  .168968031649D-01  .476650893688D-05  .515369072533D+04
     .532800000000D+06 -.277534127235D-06 -.283736662949D+01 -.242143869400D-07
     .983001335803D+00  .303656250000D+03  .176704947158D+01 -.836463413487D-08
     .138577200868D-09  .100000000000D+01  .177800000000D+04  .000000000000D+00
     .340000000000D+01  .000000000000D+00 -.605359673500D-08  .141000000000D+03
     .525606000000D+06  .400000000000D+01
10 14  2  8  4  0  0.0 -.113377813250D-03 -.159161572810D-11  .000000000000D+00
     .122000000000D+03  .234375000000D+01  .486913139030D-08  .253735280297D+01
     .931322574615D-08  .134396412177D-01  .865571200848D-05  .515370056534D+04
     .532800000000D+06  .353902578354D-07  .136426336346D+01 -.242143869400D-06
     .942123587915D+00  .201781250000D+03  .855708683427D+00 -.798497546342D-08
    -.232509684962D-09  .100000000000D+01  .177800000000D+04  .000000000000D+00
     .340000000000D+01  .000000000000D+00 -.279396772385D-08  .122000000000D+03
     .525606000000D+06  .400000000000D+01
